[{"OBJECT_NAME":"STARLINK-34976","OBJECT_ID":"2025-176M","EPOCH":"2026-03-09T22:25:26.414400","MEAN_MOTION":15.30194246,"ECCENTRICITY":0.00010997,"INCLINATION":53.1579,"RA_OF_ASC_NODE":151.8934,"ARG_OF_PERICENTER":92.211,"MEAN_ANOMALY":267.9016,"EPHEMERIS_TYPE":0,"CLASSIFICATION_TYPE":"U","NORAD_CAT_ID":65209,"ELEMENT_SET_NO":999,"REV_AT_EPOCH":3315,"BSTAR":0.00076211159,"MEAN_MOTION_DOT":0.00022276,"MEAN_MOTION_DDOT":0},{"OBJECT_NAME":"COSMOS 1975","OBJECT_ID":"1988-093A","EPOCH":"2026-03-09T14:15:08.474112","MEAN_MOTION":15.28069249,"ECCENTRICITY":0.0012117,"INCLINATION":82.5181,"RA_OF_ASC_NODE":117.7814,"ARG_OF_PERICENTER":163.8427,"MEAN_ANOMALY":196.3201,"EPHEMERIS_TYPE":0,"CLASSIFICATION_TYPE":"U","NORAD_CAT_ID":19573,"ELEMENT_SET_NO":999,"REV_AT_EPOCH":1939,"BSTAR":0.0002787,"MEAN_MOTION_DOT":7.676e-5,"MEAN_MOTION_DDOT":0}]
